OBJECT_NAME,OBJECT_ID,EPOCH,MEAN_MOTION,ECCENTRICITY,INCLINATION,RA_OF_ASC_NODE,ARG_OF_PERICENTER,MEAN_ANOMALY,EPHEMERIS_TYPE,CLASSIFICATION_TYPE,NORAD_CAT_ID,ELEMENT_SET_NO,REV_AT_EPOCH,BSTAR,MEAN_MOTION_DOT,MEAN_MOTION_DDOT
FENGYUN 3D,2017-072A,2026-06-26T05:43:35.198976,14.19741286,.000236,99.0126,151.8243,48.2013,311.9364,0,U,43010,999,44627,.3678E-4,.32E-6,0
NOAA 20 (JPSS-1),2017-073A,2026-06-26T03:56:57.878592,14.19513286,.0000599,98.7772,116.5474,132.6118,227.5108,0,U,43013,999,44574,.40735E-4,.42E-6,0
GOES 17,2018-022A,2026-06-26T04:35:51.819072,1.00272828,.000068,0.9597,85.5608,23.4402,144.7721,0,U,43226,999,3051,0,-.172E-5,0
SENTINEL-3B,2018-039A,2026-06-26T03:59:31.591104,14.26737139,.0000746,98.6245,244.5697,106.5993,253.5269,0,U,43437,999,42540,.59426E-4,.1E-5,0
FENGYUN 2H,2018-050A,2026-06-26T02:39:58.099968,1.00269792,.0001677,3.0548,78.9761,124.2863,190.3122,0,U,43491,999,2952,0,-.121E-5,0
METOP-C,2018-087A,2026-06-26T03:33:08.502048,14.21514306,.0002031,98.6640,236.5877,118.0932,242.0451,0,U,43689,999,39610,.5648E-4,.8E-6,0
GEO-KOMPSAT-2A,2018-100A,2026-06-25T20:03:12.714048,1.00270592,.0002457,0.0442,157.6311,293.4522,251.9424,0,U,43823,999,2771,0,-.333E-5,0
METEOR-M2 2,2019-038A,2026-06-26T05:40:05.403360,14.24368452,.0001705,98.9146,164.6551,35.5385,324.5906,0,U,44387,999,36258,.10735E-3,.202E-5,0
ARKTIKA-M 1,2021-016A,2026-06-24T11:15:18.372960,2.00620016,.7291,63.2470,56.5720,269.9787,14.5750,0,U,47719,999,3893,0,-.298E-5,0
FENGYUN 3E,2021-062A,2026-06-26T03:37:26.037120,14.19903700,.0002787,98.7495,180.4590,71.7586,288.3894,0,U,49008,999,25785,-.90576E-4,-.236E-5,0
GOES 18,2022-021A,2026-06-26T05:14:46.220928,1.00273030,.0000633,0.0070,70.8869,53.6380,91.5066,0,U,51850,999,668,0,.108E-5,0
NOAA 21 (JPSS-2),2022-150A,2026-06-26T03:02:25.004256,14.19538014,.000219,98.7060,115.7657,139.9532,220.1806,0,U,54234,999,18781,.31577E-4,.23E-6,0
METEOSAT-12 (MTG-I1),2022-170C,2026-06-26T03:59:47.278752,1.00275266,.0003629,0.7482,24.4152,71.6122,237.8767,0,U,54743,999,1306,0,.3E-7,0
TIANMU-1 03,2023-039A,2026-06-26T04:02:13.280928,15.47526611,.0003992,97.5231,351.4906,77.8303,282.3393,0,U,55973,999,18222,.31863E-3,.16302E-3,0
TIANMU-1 04,2023-039B,2026-06-26T05:15:07.513344,15.48136677,.0004432,97.5169,350.6974,70.8846,289.2883,0,U,55974,999,18224,.3391E-3,.17731E-3,0
TIANMU-1 05,2023-039C,2026-06-26T05:08:16.288224,15.47453398,.0003965,97.5212,351.1498,92.6285,267.5419,0,U,55975,999,18221,.3304E-3,.16865E-3,0
TIANMU-1 06,2023-039D,2026-06-26T05:20:48.339744,15.48038075,.0004152,97.5221,351.8036,87.6171,272.5555,0,U,55976,999,18224,.33252E-3,.17324E-3,0
FENGYUN 3G,2023-055A,2026-06-26T04:19:02.655840,15.53012960,.0007231,49.9933,299.6734,334.0018,26.0585,0,U,56232,999,18140,.39043E-3,.24484E-3,0
METEOR-M2 3,2023-091A,2026-06-26T05:34:53.899392,14.24047445,.0004791,98.6079,232.0257,133.1982,226.9598,0,U,57166,999,15580,.17969E-4,-.2E-7,0
TIANMU-1 07,2023-101A,2026-06-26T04:36:16.966656,15.29906094,.0004335,97.2594,227.6533,103.0761,257.0964,0,U,57399,999,16302,.23729E-3,.6799E-4,0
TIANMU-1 08,2023-101B,2026-06-26T03:48:12.703104,15.29909999,.0005699,97.2583,227.3900,93.7061,266.4832,0,U,57400,999,16301,.25258E-3,.7244E-4,0
TIANMU-1 09,2023-101C,2026-06-26T04:58:14.397312,15.29945233,.0004887,97.2540,226.8487,106.4824,253.6954,0,U,57401,999,16302,.25955E-3,.7454E-4,0
TIANMU-1 10,2023-101D,2026-06-26T04:11:53.138976,15.29916587,.0006438,97.2620,227.8769,103.2903,256.9056,0,U,57402,999,16301,.25482E-3,.7311E-4,0
FENGYUN 3F,2023-111A,2026-06-26T04:55:26.413248,14.19940442,.0001552,98.6834,247.0458,86.7314,273.4040,0,U,57490,999,15014,.34332E-4,.3E-6,0
ARKTIKA-M 2,2023-198A,2026-06-23T17:46:44.121216,2.00611379,.69049491,63.2421,153.6337,267.3888,18.7567,0,U,58584,999,1845,0,.167E-5,0
TIANMU-1 11,2023-205A,2026-06-26T05:27:35.554176,15.27082457,.0007828,97.3446,198.6423,344.5577,15.5422,0,U,58645,999,13890,.22759E-3,.5978E-4,0
TIANMU-1 12,2023-205B,2026-06-26T03:10:51.310848,15.27049196,.0005677,97.3435,198.3028,328.7250,31.3650,0,U,58646,999,13887,.25067E-3,.6582E-4,0
TIANMU-1 13,2023-205C,2026-06-26T03:58:26.143104,15.26901598,.0005082,97.3462,198.6093,301.9267,58.1478,0,U,58647,999,13887,.23435E-3,.6121E-4,0
TIANMU-1 14,2023-205D,2026-06-26T05:11:07.287648,15.26946849,.0005982,97.3399,197.8337,307.5455,52.5240,0,U,58648,999,13888,.24093E-3,.6304E-4,0
TIANMU-1 19,2023-208A,2026-06-26T05:41:54.523104,15.31702296,.0003442,97.4508,293.5840,284.4941,75.5918,0,U,58660,999,13871,.29527E-3,.8963E-4,0
TIANMU-1 20,2023-208B,2026-06-26T03:18:12.902976,15.32889938,.0005579,97.4450,294.1284,294.8685,65.1976,0,U,58661,999,13879,.28814E-3,.9079E-4,0
